HAWK-11B                
1 62379U 24247C   26068.44730104  .00009093  00000+0  32842-3 0  9993
2 62379  45.0161 115.7610 0004690 333.0326  27.0314 15.28847070 67738
STARLINK-34616          
1 66320U 25253B   26068.72021285  .00041047  00000+0  14923-2 0  9999
2 66320  43.0023 211.9475 0001173 258.2993 101.7727 15.27592386 20331
